IXPE                    
1 49954U 21121A   24197.58334491  .00006731  00000+0  47949-3 0  9990
2 49954   0.2292 182.5452 0009186 338.9048 294.3808 14.98553239  5743
